[{"OBJECT_NAME":"STARLINK-6104","OBJECT_ID":"2023-046AM","EPOCH":"2026-03-08T13:53:57.664896","MEAN_MOTION":15.02539221,"ECCENTRICITY":0.00012202,"INCLINATION":43.0037,"RA_OF_ASC_NODE":152.1144,"ARG_OF_PERICENTER":269.6844,"MEAN_ANOMALY":90.3859,"EPHEMERIS_TYPE":0,"CLASSIFICATION_TYPE":"U","NORAD_CAT_ID":56127,"ELEMENT_SET_NO":999,"REV_AT_EPOCH":16204,"BSTAR":4.3048361e-5,"MEAN_MOTION_DOT":3.78e-6,"MEAN_MOTION_DDOT":0},{"OBJECT_NAME":"OPS 6553","OBJECT_ID":"1982-041C","EPOCH":"2026-03-09T22:03:24.080544","MEAN_MOTION":15.05429153,"ECCENTRICITY":0.00081122,"INCLINATION":95.9935,"RA_OF_ASC_NODE":204.8515,"ARG_OF_PERICENTER":276.7874,"MEAN_ANOMALY":83.2434,"EPHEMERIS_TYPE":0,"CLASSIFICATION_TYPE":"U","NORAD_CAT_ID":13172,"ELEMENT_SET_NO":999,"REV_AT_EPOCH":10072,"BSTAR":0.00048705,"MEAN_MOTION_DOT":6.956e-5,"MEAN_MOTION_DDOT":0}]
